[{"OBJECT_NAME":"STARLINK-32933","OBJECT_ID":"2025-037F","EPOCH":"2026-03-09T21:39:59.933664","MEAN_MOTION":14.96392117,"ECCENTRICITY":0.00092861,"INCLINATION":70.0032,"RA_OF_ASC_NODE":353.9289,"ARG_OF_PERICENTER":34.0128,"MEAN_ANOMALY":326.1623,"EPHEMERIS_TYPE":0,"CLASSIFICATION_TYPE":"U","NORAD_CAT_ID":63082,"ELEMENT_SET_NO":999,"REV_AT_EPOCH":5857,"BSTAR":-0.11736872,"MEAN_MOTION_DOT":-0.01234595,"MEAN_MOTION_DDOT":0},{"OBJECT_NAME":"FENGYUN 1C DEB","OBJECT_ID":"1999-025AWD","EPOCH":"2026-03-09T00:25:30.167328","MEAN_MOTION":14.52631213,"ECCENTRICITY":0.01472106,"INCLINATION":98.8286,"RA_OF_ASC_NODE":149.2181,"ARG_OF_PERICENTER":218.2424,"MEAN_ANOMALY":140.8257,"EPHEMERIS_TYPE":0,"CLASSIFICATION_TYPE":"U","NORAD_CAT_ID":30843,"ELEMENT_SET_NO":999,"REV_AT_EPOCH":543,"BSTAR":0.00025677713,"MEAN_MOTION_DOT":1.153e-5,"MEAN_MOTION_DDOT":0}]
